sat43150
1 43150U 18006E   20046.85432013  .00004820  00000-0  11365-3 0  9999
2 43150  97.5313 193.2838 0041501  98.1261 262.4696 15.41512202117271
